ONEWEB-0608             
1 54672U 22166AG  26165.18073483  .00000154  00000+0  34165-3 0  9996
2 54672  87.9264 244.5651 0002330  87.6698 272.4702 13.21827898171159
ONEWEB-0610             
1 54673U 22166AH  26165.16054632  .00000097  00000+0  20261-3 0  9998
2 54673  87.9253 244.5835 0002162  82.2423 277.8956 13.21824238171056
ONEWEB-0611             
1 54674U 22166AJ  26165.15381001  .00000063  00000+0  12164-3 0  9997
2 54674  87.9253 244.5808 0002049 102.9802 257.1560 13.21827905171047
ONEWEB-0612             
1 54675U 22166AK  26165.16728524  .00000141  00000+0  31023-3 0  9996
2 54675  87.9266 244.5734 0002105  94.6540 265.4834 13.21825424171038
ONEWEB-0615             
1 54676U 22166AL  26165.14710612  .00000042  00000+0  69090-4 0  9990
2 54676  87.9256 244.5921 0001852 104.9311 255.2028 13.21826430171046
ONEWEB-0655             
1 54677U 22166AM  26165.19925054  .00000088  00000+0  18039-3 0  9990
2 54677  87.9256 244.5831 0001834  94.0716 266.0627 13.21827070171041
ONEWEB-0659             
1 54678U 22166AN  26165.21606966  .00000071  00000+0  13949-3 0  9999
2 54678  87.9255 244.5796 0002065 101.1755 258.9611 13.21827874171136
ONEWEB-0685             
1 54679U 22166AP  26165.21620345  .00000035  00000+0  54373-4 0  9994
2 54679  87.9252 244.5718 0002042  88.2608 271.8760 13.21847422171023
ONEWEB-0712             
1 54680U 22166AQ  26165.17213579  .00000206  00000+0  50414-3 0  9999
2 54680  87.9102 229.3732 0001598  90.6600 269.4714 13.16594443171668
ONEWEB-0714             
1 54681U 22166AR  26164.91831409  .00000045  00000+0  76443-4 0  9991
2 54681  87.9253 244.6283 0001702  97.6084 262.5243 13.21824807171103
ONEWEB-0532             
1 55140U 23004A   26165.07167714  .00011150  00000+0  28607-1 0  9998
2 55140  87.9132   6.4848 0002204  89.8954 270.2430 13.17752007167171
ONEWEB-0533             
1 55141U 23004B   26164.95049934  .00000073  00000+0  16751-3 0  9999
2 55141  87.8944 351.3145 0001845  83.7516 276.3822 13.12444631167630
ONEWEB-0541             
1 55142U 23004C   26165.13043234  .00000570  00000+0  15714-2 0  9997
2 55142  87.8898  21.6663 0001876  90.6362 269.4981 13.11418173165549
ONEWEB-0543             
1 55143U 23004D   26164.97705750  .00000084  00000+0  18029-3 0  9990
2 55143  87.9157 336.1086 0001610  90.7040 269.4277 13.18684815169279
ONEWEB-0544             
1 55144U 23004E   26165.19794566  .00000014  00000+0  25206-5 0  9999
2 55144  87.9159 336.0645 0001723  97.7236 262.4091 13.18685124169306
ONEWEB-0560             
1 55145U 23004F   26165.19120139  .00000041  00000+0  72393-4 0  9997
2 55145  87.9159 336.0550 0001622  98.0968 262.0348 13.18686941169316
ONEWEB-0565             
1 55146U 23004G   26165.18445705  .00000032  00000+0  48930-4 0  9996
2 55146  87.9150 336.0844 0002001 104.2774 255.8580 13.18685238169306
ONEWEB-0567             
1 55147U 23004H   26165.17771538  .00000086  00000+0  18650-3 0  9996
2 55147  87.9159 336.0697 0001842 104.3495 255.7842 13.18686199169302
ONEWEB-0569             
1 55148U 23004J   26165.18955554  .00000258  00000+0  67187-3 0  9990
2 55148  87.8958 320.8163 0001492 125.9350 234.1918 13.13469166169783
ONEWEB-0570             
1 55149U 23004K   26165.16927376 -.00000037  00000+0 -12662-3 0  9995
2 55149  87.9158 336.0693 0002231  95.2286 264.9101 13.18684625169298
ONEWEB-0571             
1 55150U 23004L   26165.01078470  .00000030  00000+0  43404-4 0  9993
2 55150  87.9158 336.1002 0002106 129.0790 231.0530 13.18687856169281
ONEWEB-0572             
1 55151U 23004M   26165.10220639  .00000009  00000+0 -98958-5 0  9992
2 55151  87.9136   6.4792 0001923  93.9273 266.2079 13.17648598167074
ONEWEB-0573             
1 55152U 23004N   26165.00403492  .00000043  00000+0  76736-4 0  9998
2 55152  87.9159 336.1029 0002102 116.9560 243.1787 13.18686134169274
ONEWEB-0588             
1 55153U 23004P   26164.99728877  .00000044  00000+0  79876-4 0  9992
2 55153  87.9157 336.1046 0002307  98.0026 262.1368 13.18684852169277
ONEWEB-0598             
1 55154U 23004Q   26165.10838206  .00000004  00000+0 -25896-4 0  9995
2 55154  87.8888  21.6819 0001578 108.7980 251.3319 13.11419820165499
ONEWEB-0599             
1 55155U 23004R   26165.06339750  .00000017  00000+0  10071-4 0  9993
2 55155  87.9133   6.4858 0001625  87.8743 272.2574 13.17648351167075
ONEWEB-0614             
1 55156U 23004S   26165.10328809 -.00000369  00000+0 -10765-2 0  9992
2 55156  87.8890  21.6918 0002029  82.6564 277.4794 13.11418391165436
ONEWEB-0616             
1 55157U 23004T   26165.10558875  .00000068  00000+0  14132-3 0  9998
2 55157  87.9136   6.4808 0001024  69.7912 290.3330 13.17649095167296
ONEWEB-0617             
1 55158U 23004U   26165.09142626 -.00000615  00000+0 -17698-2 0  9999
2 55158  87.8892  21.6847 0002252  86.0077 274.1309 13.11416577165458
ONEWEB-0618             
1 55159U 23004V   26165.08266999  .00003988  00000+0  22318-3 0  9999
2 55159  86.9092 178.8950 0010094 315.0928  44.9494 15.13121007181792
ONEWEB-0619             
1 55160U 23004W   26165.06171657  .00000011  00000+0 -46967-5 0  9998
2 55160  87.9144   6.4702 0001994  75.4154 284.7199 13.17648390167185
