OBJECT_NAME,OBJECT_ID,EPOCH,MEAN_MOTION,ECCENTRICITY,INCLINATION,RA_OF_ASC_NODE,ARG_OF_PERICENTER,MEAN_ANOMALY,EPHEMERIS_TYPE,CLASSIFICATION_TYPE,NORAD_CAT_ID,ELEMENT_SET_NO,REV_AT_EPOCH,BSTAR,MEAN_MOTION_DOT,MEAN_MOTION_DDOT
ONEWEB-0608,2022-166AG,2026-06-14T04:20:15.489312,13.21827898,.000233,87.9264,244.5651,87.6698,272.4702,0,U,54672,999,17115,.34165E-3,.154E-5,0
ONEWEB-0610,2022-166AH,2026-06-14T03:51:11.202048,13.21824238,.0002162,87.9253,244.5835,82.2423,277.8956,0,U,54673,999,17105,.20261E-3,.97E-6,0
ONEWEB-0611,2022-166AJ,2026-06-14T03:41:29.184864,13.21827905,.0002049,87.9253,244.5808,102.9802,257.1560,0,U,54674,999,17104,.12164E-3,.63E-6,0
ONEWEB-0612,2022-166AK,2026-06-14T04:00:53.444736,13.21825424,.0002105,87.9266,244.5734,94.6540,265.4834,0,U,54675,999,17103,.31023E-3,.141E-5,0
ONEWEB-0615,2022-166AL,2026-06-14T03:31:49.968768,13.21826430,.0001852,87.9256,244.5921,104.9311,255.2028,0,U,54676,999,17104,.6909E-4,.42E-6,0
ONEWEB-0655,2022-166AM,2026-06-14T04:46:55.246656,13.21827070,.0001834,87.9256,244.5831,94.0716,266.0627,0,U,54677,999,17104,.18039E-3,.88E-6,0
ONEWEB-0659,2022-166AN,2026-06-14T05:11:08.418624,13.21827874,.0002065,87.9255,244.5796,101.1755,258.9611,0,U,54678,999,17113,.13949E-3,.71E-6,0
ONEWEB-0685,2022-166AP,2026-06-14T05:11:19.978080,13.21847422,.0002042,87.9252,244.5718,88.2608,271.8760,0,U,54679,999,17102,.54373E-4,.35E-6,0
ONEWEB-0712,2022-166AQ,2026-06-14T04:07:52.532256,13.16594443,.0001598,87.9102,229.3732,90.6600,269.4714,0,U,54680,999,17166,.50414E-3,.206E-5,0
ONEWEB-0714,2022-166AR,2026-06-13T22:02:22.337376,13.21824807,.0001702,87.9253,244.6283,97.6084,262.5243,0,U,54681,999,17110,.76443E-4,.45E-6,0
ONEWEB-0532,2023-004A,2026-06-14T01:43:12.904896,13.17752007,.0002204,87.9132,6.4848,89.8954,270.2430,0,U,55140,999,16717,.28607E-1,.1115E-3,0
ONEWEB-0533,2023-004B,2026-06-13T22:48:43.142976,13.12444631,.0001845,87.8944,351.3145,83.7516,276.3822,0,U,55141,999,16763,.16751E-3,.73E-6,0
ONEWEB-0541,2023-004C,2026-06-14T03:07:49.354176,13.11418173,.0001876,87.8898,21.6663,90.6362,269.4981,0,U,55142,999,16554,.15714E-2,.57E-5,0
ONEWEB-0543,2023-004D,2026-06-13T23:26:57.768000,13.18684815,.000161,87.9157,336.1086,90.7040,269.4277,0,U,55143,999,16927,.18029E-3,.84E-6,0
ONEWEB-0544,2023-004E,2026-06-14T04:45:02.505024,13.18685124,.0001723,87.9159,336.0645,97.7236,262.4091,0,U,55144,999,16930,.25206E-5,.14E-6,0
ONEWEB-0560,2023-004F,2026-06-14T04:35:19.800096,13.18686941,.0001622,87.9159,336.0550,98.0968,262.0348,0,U,55145,999,16931,.72393E-4,.41E-6,0
ONEWEB-0565,2023-004G,2026-06-14T04:25:37.089120,13.18685238,.0002001,87.9150,336.0844,104.2774,255.8580,0,U,55146,999,16930,.4893E-4,.32E-6,0
ONEWEB-0567,2023-004H,2026-06-14T04:15:54.608832,13.18686199,.0001842,87.9159,336.0697,104.3495,255.7842,0,U,55147,999,16930,.1865E-3,.86E-6,0
ONEWEB-0569,2023-004J,2026-06-14T04:32:57.598656,13.13469166,.0001492,87.8958,320.8163,125.9350,234.1918,0,U,55148,999,16978,.67187E-3,.258E-5,0
ONEWEB-0570,2023-004K,2026-06-14T04:03:45.252864,13.18684625,.0002231,87.9158,336.0693,95.2286,264.9101,0,U,55149,999,16929,-.12662E-3,-.37E-6,0
ONEWEB-0571,2023-004L,2026-06-14T00:15:31.798080,13.18687856,.0002106,87.9158,336.1002,129.0790,231.0530,0,U,55150,999,16928,.43404E-4,.3E-6,0
ONEWEB-0572,2023-004M,2026-06-14T02:27:10.632096,13.17648598,.0001923,87.9136,6.4792,93.9273,266.2079,0,U,55151,999,16707,-.98958E-5,.9E-7,0
ONEWEB-0573,2023-004N,2026-06-14T00:05:48.617088,13.18686134,.0002102,87.9159,336.1029,116.9560,243.1787,0,U,55152,999,16927,.76736E-4,.43E-6,0
ONEWEB-0588,2023-004P,2026-06-13T23:56:05.749728,13.18684852,.0002307,87.9157,336.1046,98.0026,262.1368,0,U,55153,999,16927,.79876E-4,.44E-6,0
ONEWEB-0598,2023-004Q,2026-06-14T02:36:04.209984,13.11419820,.0001578,87.8888,21.6819,108.7980,251.3319,0,U,55154,999,16549,-.25896E-4,.4E-7,0
ONEWEB-0599,2023-004R,2026-06-14T01:31:17.544000,13.17648351,.0001625,87.9133,6.4858,87.8743,272.2574,0,U,55155,999,16707,.10071E-4,.17E-6,0
ONEWEB-0614,2023-004S,2026-06-14T02:28:44.090976,13.11418391,.0002029,87.8890,21.6918,82.6564,277.4794,0,U,55156,999,16543,-.10765E-2,-.369E-5,0
ONEWEB-0616,2023-004T,2026-06-14T02:32:02.868000,13.17649095,.0001024,87.9136,6.4808,69.7912,290.3330,0,U,55157,999,16729,.14132E-3,.68E-6,0
ONEWEB-0617,2023-004U,2026-06-14T02:11:39.228864,13.11416577,.0002252,87.8892,21.6847,86.0077,274.1309,0,U,55158,999,16545,-.17698E-2,-.615E-5,0
ONEWEB-0618,2023-004V,2026-06-14T01:59:02.687136,15.13121007,.0010094,86.9092,178.8950,315.0928,44.9494,0,U,55159,999,18179,.22318E-3,.3988E-4,0
ONEWEB-0619,2023-004W,2026-06-14T01:28:52.311648,13.17648390,.0001994,87.9144,6.4702,75.4154,284.7199,0,U,55160,999,16718,-.46967E-5,.11E-6,0
